OBJECT B                
1 51825U 22019B   25267.97897493  .00041882  00000+0  88007-3 0  9991
2 51825  97.3766 345.9665 0008948  29.4834 330.6918 15.45179494198454
